[{"OBJECT_NAME":"STARLINK-3524","OBJECT_ID":"2022-016H","EPOCH":"2026-03-09T22:16:33.425760","MEAN_MOTION":15.08801177,"ECCENTRICITY":0.00014166,"INCLINATION":53.2187,"RA_OF_ASC_NODE":328.0555,"ARG_OF_PERICENTER":109.7277,"MEAN_ANOMALY":250.3868,"EPHEMERIS_TYPE":0,"CLASSIFICATION_TYPE":"U","NORAD_CAT_ID":51721,"ELEMENT_SET_NO":999,"REV_AT_EPOCH":22346,"BSTAR":0.00044620561,"MEAN_MOTION_DOT":6.813e-5,"MEAN_MOTION_DDOT":0},{"OBJECT_NAME":"DELTA 1 DEB","OBJECT_ID":"1972-058BG","EPOCH":"2026-03-09T20:01:49.581696","MEAN_MOTION":14.88535429,"ECCENTRICITY":0.00965988,"INCLINATION":98.8237,"RA_OF_ASC_NODE":167.9558,"ARG_OF_PERICENTER":346.289,"MEAN_ANOMALY":13.5703,"EPHEMERIS_TYPE":0,"CLASSIFICATION_TYPE":"U","NORAD_CAT_ID":7890,"ELEMENT_SET_NO":999,"REV_AT_EPOCH":62566,"BSTAR":0.0011014398,"MEAN_MOTION_DOT":0.00011112,"MEAN_MOTION_DDOT":0}]
